HULIANWANG DIGUI-108    
1 66918U 25285D   26197.84677449 -.00000091  00000+0  70412-4 0  9994
2 66918  50.0054  39.6235 0000961  43.9906 316.1043 13.29325969 30001
HULIANWANG DIGUI-109    
1 66919U 25285E   26197.98867676 -.00000101  00000+0  49527-4 0  9998
2 66919  50.0083  39.0850 0000922  53.2196 306.8761 13.29316673 30031
HULIANWANG DIGUI-110    
1 66920U 25285F   26198.28118577 -.00000113  00000+0  24692-4 0  9992
2 66920  50.0117  38.0210 0000897  46.4767 313.6179 13.29326478 30065
HULIANWANG DIGUI-111    
1 66921U 25285G   26198.27286871 -.00000118  00000+0  12472-4 0  9993
2 66921  50.0133  38.0080 0000907  46.8099 313.2849 13.29325997 30068
HULIANWANG DIGUI-112    
1 66922U 25285H   26197.73821651 -.00000107  00000+0  36066-4 0  9998
2 66922  50.0096  39.7868 0000958  42.0150 318.0795 13.29325946 29998
HULIANWANG DIGUI-113    
1 66923U 25285J   26198.25622619 -.00000119  00000+0  10236-4 0  9994
2 66923  50.0104  37.8736 0000959  43.0206 317.0741 13.29324269 30063
HULIANWANG DIGUI-114    
1 66953U 25287A   26198.13444494  .00000049  00000+0  79422-4 0  9992
2 66953  86.4928 272.2479 0002279  97.9373 262.2020 13.24413489 29306
HULIANWANG DIGUI-115    
1 66954U 25287B   26198.20215209  .00000035  00000+0  47194-4 0  9997
2 66954  86.4944 272.2545 0002570  95.1977 264.9450 13.24400966 29316
HULIANWANG DIGUI-116    
1 66955U 25287C   26198.19488961  .00000036  00000+0  50394-4 0  9990
2 66955  86.4884 272.1163 0002380  95.7295 264.4111 13.24413192 29317
HULIANWANG DIGUI-117    
1 66956U 25287D   26198.18736770  .00000041  00000+0  61340-4 0  9993
2 66956  86.4945 272.2488 0000940  65.7059 294.4173 13.24412878 29313
HULIANWANG DIGUI-118    
1 66957U 25287E   26198.17980320  .00000049  00000+0  81011-4 0  9990
2 66957  86.4921 272.1917 0002333  97.4509 262.6890 13.24412337 29317
HULIANWANG DIGUI-119    
1 67059U 25295A   26197.55167285 -.00000078  00000+0  99091-4 0  9991
2 67059  50.0040 280.4669 0001116 195.7162 164.3675 13.29324671 29408
HULIANWANG DIGUI-120    
1 67060U 25295B   26197.61015580 -.00000088  00000+0  77439-4 0  9993
2 67060  50.0043 280.1199 0001202 196.1894 163.8940 13.29324490 29410
HULIANWANG DIGUI-121    
1 67061U 25295C   26197.61850265 -.00000099  00000+0  53597-4 0  9992
2 67061  50.0009 280.0896 0001152 193.6717 166.4124 13.29325795 29418
HULIANWANG DIGUI-122    
1 67062U 25295D   26197.60172398 -.00000077  00000+0  10139-3 0  9996
2 67062  50.0037 280.0668 0001127 195.3373 164.7465 13.29324474 29418
HULIANWANG DIGUI-123    
1 67063U 25295E   26198.27004407 -.00000075  00000+0  10637-3 0  9997
2 67063  50.0037 277.6004 0001039 198.6494 161.4341 13.29324188 29506
