{"fetched_at":"2026-07-17T17:38:19.080Z","source":"https://celestrak.org/NORAD/elements/gp.php?NAME=HULIANWANG&FORMAT=JSON","constellation":"guowang","records":[{"OBJECT_NAME":"HULIANWANG DIGUI-108","OBJECT_ID":"2025-285D","EPOCH":"2026-07-16T20:19:21.315936","CLASSIFICATION_TYPE":"U","MEAN_MOTION":13.29325969,"ECCENTRICITY":0.00009612,"INCLINATION":50.0054,"RA_OF_ASC_NODE":39.6235,"ARG_OF_PERICENTER":43.9906,"MEAN_ANOMALY":316.1043,"EPHEMERIS_TYPE":0,"NORAD_CAT_ID":66918,"ELEMENT_SET_NO":999,"REV_AT_EPOCH":3000,"BSTAR":0.00007041199,"MEAN_MOTION_DOT":-9.1e-7,"MEAN_MOTION_DDOT":0},{"OBJECT_NAME":"HULIANWANG DIGUI-109","OBJECT_ID":"2025-285E","EPOCH":"2026-07-16T23:43:41.672064","CLASSIFICATION_TYPE":"U","MEAN_MOTION":13.29316673,"ECCENTRICITY":0.00009229,"INCLINATION":50.0083,"RA_OF_ASC_NODE":39.085,"ARG_OF_PERICENTER":53.2196,"MEAN_ANOMALY":306.8761,"EPHEMERIS_TYPE":0,"NORAD_CAT_ID":66919,"ELEMENT_SET_NO":999,"REV_AT_EPOCH":3003,"BSTAR":0.000049526731,"MEAN_MOTION_DOT":-0.00000101,"MEAN_MOTION_DDOT":0},{"OBJECT_NAME":"HULIANWANG DIGUI-110","OBJECT_ID":"2025-285F","EPOCH":"2026-07-17T06:44:54.450528","CLASSIFICATION_TYPE":"U","MEAN_MOTION":13.29326478,"ECCENTRICITY":0.00008978,"INCLINATION":50.0117,"RA_OF_ASC_NODE":38.021,"ARG_OF_PERICENTER":46.4767,"MEAN_ANOMALY":313.6179,"EPHEMERIS_TYPE":0,"NORAD_CAT_ID":66920,"ELEMENT_SET_NO":999,"REV_AT_EPOCH":3006,"BSTAR":0.000024692156,"MEAN_MOTION_DOT":-0.00000113,"MEAN_MOTION_DDOT":0},{"OBJECT_NAME":"HULIANWANG DIGUI-111","OBJECT_ID":"2025-285G","EPOCH":"2026-07-17T06:32:55.856544","CLASSIFICATION_TYPE":"U","MEAN_MOTION":13.29325997,"ECCENTRICITY":0.00009074,"INCLINATION":50.0133,"RA_OF_ASC_NODE":38.008,"ARG_OF_PERICENTER":46.8099,"MEAN_ANOMALY":313.2849,"EPHEMERIS_TYPE":0,"NORAD_CAT_ID":66921,"ELEMENT_SET_NO":999,"REV_AT_EPOCH":3006,"BSTAR":0.000012471873,"MEAN_MOTION_DOT":-0.00000118,"MEAN_MOTION_DDOT":0},{"OBJECT_NAME":"HULIANWANG DIGUI-112","OBJECT_ID":"2025-285H","EPOCH":"2026-07-16T17:43:01.906464","CLASSIFICATION_TYPE":"U","MEAN_MOTION":13.29325946,"ECCENTRICITY":0.0000958,"INCLINATION":50.0096,"RA_OF_ASC_NODE":39.7868,"ARG_OF_PERICENTER":42.015,"MEAN_ANOMALY":318.0795,"EPHEMERIS_TYPE":0,"NORAD_CAT_ID":66922,"ELEMENT_SET_NO":999,"REV_AT_EPOCH":2999,"BSTAR":0.000036066275,"MEAN_MOTION_DOT":-0.00000107,"MEAN_MOTION_DDOT":0},{"OBJECT_NAME":"HULIANWANG DIGUI-113","OBJECT_ID":"2025-285J","EPOCH":"2026-07-17T06:08:57.942816","CLASSIFICATION_TYPE":"U","MEAN_MOTION":13.29324269,"ECCENTRICITY":0.00009592,"INCLINATION":50.0104,"RA_OF_ASC_NODE":37.8736,"ARG_OF_PERICENTER":43.0206,"MEAN_ANOMALY":317.0741,"EPHEMERIS_TYPE":0,"NORAD_CAT_ID":66923,"ELEMENT_SET_NO":999,"REV_AT_EPOCH":3006,"BSTAR":0.000010235937,"MEAN_MOTION_DOT":-0.00000119,"MEAN_MOTION_DDOT":0},{"OBJECT_NAME":"HULIANWANG DIGUI-114","OBJECT_ID":"2025-287A","EPOCH":"2026-07-17T03:13:36.042816","CLASSIFICATION_TYPE":"U","MEAN_MOTION":13.24413489,"ECCENTRICITY":0.00022799,"INCLINATION":86.4928,"RA_OF_ASC_NODE":272.2479,"ARG_OF_PERICENTER":97.9373,"MEAN_ANOMALY":262.202,"EPHEMERIS_TYPE":0,"NORAD_CAT_ID":66953,"ELEMENT_SET_NO":999,"REV_AT_EPOCH":2930,"BSTAR":0.000079421966,"MEAN_MOTION_DOT":4.9e-7,"MEAN_MOTION_DDOT":0},{"OBJECT_NAME":"HULIANWANG DIGUI-115","OBJECT_ID":"2025-287B","EPOCH":"2026-07-17T04:51:05.940576","CLASSIFICATION_TYPE":"U","MEAN_MOTION":13.24400966,"ECCENTRICITY":0.00025703,"INCLINATION":86.4944,"RA_OF_ASC_NODE":272.2545,"ARG_OF_PERICENTER":95.1977,"MEAN_ANOMALY":264.945,"EPHEMERIS_TYPE":0,"NORAD_CAT_ID":66954,"ELEMENT_SET_NO":999,"REV_AT_EPOCH":2931,"BSTAR":0.000047194262,"MEAN_MOTION_DOT":3.5e-7,"MEAN_MOTION_DDOT":0},{"OBJECT_NAME":"HULIANWANG DIGUI-116","OBJECT_ID":"2025-287C","EPOCH":"2026-07-17T04:40:38.462304","CLASSIFICATION_TYPE":"U","MEAN_MOTION":13.24413192,"ECCENTRICITY":0.00023809,"INCLINATION":86.4884,"RA_OF_ASC_NODE":272.1163,"ARG_OF_PERICENTER":95.7295,"MEAN_ANOMALY":264.4111,"EPHEMERIS_TYPE":0,"NORAD_CAT_ID":66955,"ELEMENT_SET_NO":999,"REV_AT_EPOCH":2931,"BSTAR":0.000050394411,"MEAN_MOTION_DOT":3.6e-7,"MEAN_MOTION_DDOT":0},{"OBJECT_NAME":"HULIANWANG DIGUI-117","OBJECT_ID":"2025-287D","EPOCH":"2026-07-17T04:29:48.569280","CLASSIFICATION_TYPE":"U","MEAN_MOTION":13.24412878,"ECCENTRICITY":0.00009409,"INCLINATION":86.4945,"RA_OF_ASC_NODE":272.2488,"ARG_OF_PERICENTER":65.7059,"MEAN_ANOMALY":294.4173,"EPHEMERIS_TYPE":0,"NORAD_CAT_ID":66956,"ELEMENT_SET_NO":999,"REV_AT_EPOCH":2931,"BSTAR":0.000061339912,"MEAN_MOTION_DOT":4.1e-7,"MEAN_MOTION_DDOT":0},{"OBJECT_NAME":"HULIANWANG DIGUI-118","OBJECT_ID":"2025-287E","EPOCH":"2026-07-17T04:18:54.996480","CLASSIFICATION_TYPE":"U","MEAN_MOTION":13.24412337,"ECCENTRICITY":0.0002333,"INCLINATION":86.4921,"RA_OF_ASC_NODE":272.1917,"ARG_OF_PERICENTER":97.4509,"MEAN_ANOMALY":262.689,"EPHEMERIS_TYPE":0,"NORAD_CAT_ID":66957,"ELEMENT_SET_NO":999,"REV_AT_EPOCH":2931,"BSTAR":0.000081010653,"MEAN_MOTION_DOT":4.9e-7,"MEAN_MOTION_DDOT":0},{"OBJECT_NAME":"HULIANWANG DIGUI-119","OBJECT_ID":"2025-295A","EPOCH":"2026-07-16T13:14:24.534240","CLASSIFICATION_TYPE":"U","MEAN_MOTION":13.29324671,"ECCENTRICITY":0.0001116,"INCLINATION":50.004,"RA_OF_ASC_NODE":280.4669,"ARG_OF_PERICENTER":195.7162,"MEAN_ANOMALY":164.3675,"EPHEMERIS_TYPE":0,"NORAD_CAT_ID":67059,"ELEMENT_SET_NO":999,"REV_AT_EPOCH":2940,"BSTAR":0.000099091,"MEAN_MOTION_DOT":-7.8e-7,"MEAN_MOTION_DDOT":0},{"OBJECT_NAME":"HULIANWANG DIGUI-120","OBJECT_ID":"2025-295B","EPOCH":"2026-07-16T14:38:37.461120","CLASSIFICATION_TYPE":"U","MEAN_MOTION":13.2932449,"ECCENTRICITY":0.0001202,"INCLINATION":50.0043,"RA_OF_ASC_NODE":280.1199,"ARG_OF_PERICENTER":196.1894,"MEAN_ANOMALY":163.894,"EPHEMERIS_TYPE":0,"NORAD_CAT_ID":67060,"ELEMENT_SET_NO":999,"REV_AT_EPOCH":2941,"BSTAR":0.000077439,"MEAN_MOTION_DOT":-8.8e-7,"MEAN_MOTION_DDOT":0},{"OBJECT_NAME":"HULIANWANG DIGUI-121","OBJECT_ID":"2025-295C","EPOCH":"2026-07-16T14:50:38.628960","CLASSIFICATION_TYPE":"U","MEAN_MOTION":13.29325795,"ECCENTRICITY":0.00011525,"INCLINATION":50.0009,"RA_OF_ASC_NODE":280.0896,"ARG_OF_PERICENTER":193.6717,"MEAN_ANOMALY":166.4124,"EPHEMERIS_TYPE":0,"NORAD_CAT_ID":67061,"ELEMENT_SET_NO":999,"REV_AT_EPOCH":2941,"BSTAR":0.000053596622,"MEAN_MOTION_DOT":-9.9e-7,"MEAN_MOTION_DDOT":0},{"OBJECT_NAME":"HULIANWANG DIGUI-122","OBJECT_ID":"2025-295D","EPOCH":"2026-07-16T14:26:28.951872","CLASSIFICATION_TYPE":"U","MEAN_MOTION":13.29324474,"ECCENTRICITY":0.0001127,"INCLINATION":50.0037,"RA_OF_ASC_NODE":280.0668,"ARG_OF_PERICENTER":195.3373,"MEAN_ANOMALY":164.7465,"EPHEMERIS_TYPE":0,"NORAD_CAT_ID":67062,"ELEMENT_SET_NO":999,"REV_AT_EPOCH":2941,"BSTAR":0.00010139,"MEAN_MOTION_DOT":-7.7e-7,"MEAN_MOTION_DDOT":0},{"OBJECT_NAME":"HULIANWANG DIGUI-123","OBJECT_ID":"2025-295E","EPOCH":"2026-07-17T06:28:51.807648","CLASSIFICATION_TYPE":"U","MEAN_MOTION":13.29324188,"ECCENTRICITY":0.00010396,"INCLINATION":50.0037,"RA_OF_ASC_NODE":277.6004,"ARG_OF_PERICENTER":198.6494,"MEAN_ANOMALY":161.4341,"EPHEMERIS_TYPE":0,"NORAD_CAT_ID":67063,"ELEMENT_SET_NO":999,"REV_AT_EPOCH":2950,"BSTAR":0.00010636839,"MEAN_MOTION_DOT":-7.5e-7,"MEAN_MOTION_DDOT":0}]}
